SILVERSAT               
1 66909U 98067XV  25346.91909407  .00094974  00000+0  15570-2 0  9991
2 66909  51.6297 141.4878 0004449 228.6613 131.3994 15.51661311  1645
1998-067XW              
1 66910U 98067XW  25346.85318993  .00081487  00000+0  13339-2 0  9996
2 66910  51.6298 141.7982 0005252 209.4111 150.6584 15.51770354  1636
1998-067XX              
1 66911U 98067XX  25346.72367662  .00096916  00000+0  15692-2 0  9997
2 66911  51.6296 142.4333 0004979 210.3883 149.6819 15.51996459  1607
1998-067XY              
1 66912U 98067XY  25346.72752968  .00067169  00000+0  11286-2 0  9998
2 66912  51.6300 142.4585 0004576 223.4610 136.6019 15.51126460  1604
2025-284A               
1 66913U 25284A   25346.92635867  .00013177  00000+0  62774-3 0  9999
2 66913  80.4044 129.5282 0012041 204.1286 155.9379 15.18972069  1151
2025-284B               
1 66914U 25284B   25346.99184391  .00012788  00000+0  61062-3 0  9994
2 66914  80.4052 129.4462 0008339 246.2962 113.7391 15.18924464  1166
HULIANWANG DIGUI-105    
1 66915U 25285A   25346.91622046  .00000161  00000+0  19735-3 0  9994
2 66915  50.0040 116.5531 0007935 283.8559  76.1462 14.03715288   931
HULIANWANG DIGUI-106    
1 66916U 25285B   25346.91490303  .00000142  00000+0  17986-3 0  9999
2 66916  50.0049 116.5476 0006971 277.9821  82.0293 14.05514799   938
HULIANWANG DIGUI-107    
1 66917U 25285C   25346.98567682 -.00000133  00000+0  11671-4 0  9999
2 66917  50.0015 116.2514 0007558 285.9519  74.0553 14.05580431   944
HULIANWANG DIGUI-108    
1 66918U 25285D   25346.98510049  .00000162  00000+0  19163-3 0  9999
2 66918  50.0036 116.2507 0006471 281.0953  78.9225 14.05705537   947
HULIANWANG DIGUI-109    
1 66919U 25285E   25346.98502786 -.00000153  00000+0 -45182-6 0  9994
2 66919  50.0064 116.2539 0007865 292.5469  67.4603 14.05716691   947
HULIANWANG DIGUI-110    
1 66920U 25285F   25346.98441016  .00000148  00000+0  18273-3 0  9994
2 66920  50.0094 116.2544 0005830 289.3694  70.6581 14.05851365   941
