CCSDS_OMM_VERS = 2.0
CREATION_DATE  = 
ORIGINATOR     = 

OBJECT_NAME    = SILVERSAT
OBJECT_ID      = 1998-067XV
CENTER_NAME    = EARTH
REF_FRAME      = TEME
TIME_SYSTEM    = UTC
MEAN_ELEMENT_THEORY = SGP/SGP4

EPOCH          = 2025-12-12T22:03:29.727648
MEAN_MOTION    = 15.51661311
ECCENTRICITY   = .00044499
INCLINATION    = 51.6297
RA_OF_ASC_NODE = 141.4878
ARG_OF_PERICENTER = 228.6613
MEAN_ANOMALY   = 131.3994

EPHEMERIS_TYPE = 0
CLASSIFICATION_TYPE = U
NORAD_CAT_ID   = 66909
ELEMENT_SET_NO = 999
REV_AT_EPOCH   = 164
BSTAR          = .15570359E-2
MEAN_MOTION_DOT = .94974E-3
MEAN_MOTION_DDOT = 0

CCSDS_OMM_VERS = 2.0
CREATION_DATE  = 
ORIGINATOR     = 

OBJECT_NAME    = 1998-067XW
OBJECT_ID      = 1998-067XW
CENTER_NAME    = EARTH
REF_FRAME      = TEME
TIME_SYSTEM    = UTC
MEAN_ELEMENT_THEORY = SGP/SGP4

EPOCH          = 2025-12-12T20:28:35.609952
MEAN_MOTION    = 15.51770354
ECCENTRICITY   = .00052525
INCLINATION    = 51.6298
RA_OF_ASC_NODE = 141.7982
ARG_OF_PERICENTER = 209.4111
MEAN_ANOMALY   = 150.6584

EPHEMERIS_TYPE = 0
CLASSIFICATION_TYPE = U
NORAD_CAT_ID   = 66910
ELEMENT_SET_NO = 999
REV_AT_EPOCH   = 163
BSTAR          = .1333891E-2
MEAN_MOTION_DOT = .81487E-3
MEAN_MOTION_DDOT = 0

CCSDS_OMM_VERS = 2.0
CREATION_DATE  = 
ORIGINATOR     = 

OBJECT_NAME    = 1998-067XX
OBJECT_ID      = 1998-067XX
CENTER_NAME    = EARTH
REF_FRAME      = TEME
TIME_SYSTEM    = UTC
MEAN_ELEMENT_THEORY = SGP/SGP4

EPOCH          = 2025-12-12T17:22:05.659968
MEAN_MOTION    = 15.51996459
ECCENTRICITY   = .0004979
INCLINATION    = 51.6296
RA_OF_ASC_NODE = 142.4333
ARG_OF_PERICENTER = 210.3883
MEAN_ANOMALY   = 149.6819

EPHEMERIS_TYPE = 0
CLASSIFICATION_TYPE = U
NORAD_CAT_ID   = 66911
ELEMENT_SET_NO = 999
REV_AT_EPOCH   = 160
BSTAR          = .15692424E-2
MEAN_MOTION_DOT = .96916E-3
MEAN_MOTION_DDOT = 0

CCSDS_OMM_VERS = 2.0
CREATION_DATE  = 
ORIGINATOR     = 

OBJECT_NAME    = 1998-067XY
OBJECT_ID      = 1998-067XY
CENTER_NAME    = EARTH
REF_FRAME      = TEME
TIME_SYSTEM    = UTC
MEAN_ELEMENT_THEORY = SGP/SGP4

EPOCH          = 2025-12-12T17:27:38.564352
MEAN_MOTION    = 15.51126460
ECCENTRICITY   = .00045766
INCLINATION    = 51.6300
RA_OF_ASC_NODE = 142.4585
ARG_OF_PERICENTER = 223.4610
MEAN_ANOMALY   = 136.6019

EPHEMERIS_TYPE = 0
CLASSIFICATION_TYPE = U
NORAD_CAT_ID   = 66912
ELEMENT_SET_NO = 999
REV_AT_EPOCH   = 160
BSTAR          = .11286003E-2
MEAN_MOTION_DOT = .67169E-3
MEAN_MOTION_DDOT = 0

CCSDS_OMM_VERS = 2.0
CREATION_DATE  = 
ORIGINATOR     = 

OBJECT_NAME    = 2025-284A
OBJECT_ID      = 2025-284A
CENTER_NAME    = EARTH
REF_FRAME      = TEME
TIME_SYSTEM    = UTC
MEAN_ELEMENT_THEORY = SGP/SGP4

EPOCH          = 2025-12-12T22:13:57.389088
MEAN_MOTION    = 15.18972069
ECCENTRICITY   = .00120417
INCLINATION    = 80.4044
RA_OF_ASC_NODE = 129.5282
ARG_OF_PERICENTER = 204.1286
MEAN_ANOMALY   = 155.9379

EPHEMERIS_TYPE = 0
CLASSIFICATION_TYPE = U
NORAD_CAT_ID   = 66913
ELEMENT_SET_NO = 999
REV_AT_EPOCH   = 115
BSTAR          = .62774238E-3
MEAN_MOTION_DOT = .13177E-3
MEAN_MOTION_DDOT = 0

CCSDS_OMM_VERS = 2.0
CREATION_DATE  = 
ORIGINATOR     = 

OBJECT_NAME    = 2025-284B
OBJECT_ID      = 2025-284B
CENTER_NAME    = EARTH
REF_FRAME      = TEME
TIME_SYSTEM    = UTC
MEAN_ELEMENT_THEORY = SGP/SGP4

EPOCH          = 2025-12-12T23:48:15.313824
MEAN_MOTION    = 15.18924464
ECCENTRICITY   = .00083391
INCLINATION    = 80.4052
RA_OF_ASC_NODE = 129.4462
ARG_OF_PERICENTER = 246.2962
MEAN_ANOMALY   = 113.7391

EPHEMERIS_TYPE = 0
CLASSIFICATION_TYPE = U
NORAD_CAT_ID   = 66914
ELEMENT_SET_NO = 999
REV_AT_EPOCH   = 116
BSTAR          = .61062455E-3
MEAN_MOTION_DOT = .12788E-3
MEAN_MOTION_DDOT = 0

CCSDS_OMM_VERS = 2.0
CREATION_DATE  = 
ORIGINATOR     = 

OBJECT_NAME    = HULIANWANG DIGUI-105
OBJECT_ID      = 2025-285A
CENTER_NAME    = EARTH
REF_FRAME      = TEME
TIME_SYSTEM    = UTC
MEAN_ELEMENT_THEORY = SGP/SGP4

EPOCH          = 2025-12-12T21:59:21.447744
MEAN_MOTION    = 14.03715288
ECCENTRICITY   = .0007935
INCLINATION    = 50.0040
RA_OF_ASC_NODE = 116.5531
ARG_OF_PERICENTER = 283.8559
MEAN_ANOMALY   = 76.1462

EPHEMERIS_TYPE = 0
CLASSIFICATION_TYPE = U
NORAD_CAT_ID   = 66915
ELEMENT_SET_NO = 999
REV_AT_EPOCH   = 93
BSTAR          = .19734694E-3
MEAN_MOTION_DOT = .161E-5
MEAN_MOTION_DDOT = 0

CCSDS_OMM_VERS = 2.0
CREATION_DATE  = 
ORIGINATOR     = 

OBJECT_NAME    = HULIANWANG DIGUI-106
OBJECT_ID      = 2025-285B
CENTER_NAME    = EARTH
REF_FRAME      = TEME
TIME_SYSTEM    = UTC
MEAN_ELEMENT_THEORY = SGP/SGP4

EPOCH          = 2025-12-12T21:57:27.621792
MEAN_MOTION    = 14.05514799
ECCENTRICITY   = .00069719
INCLINATION    = 50.0049
RA_OF_ASC_NODE = 116.5476
ARG_OF_PERICENTER = 277.9821
MEAN_ANOMALY   = 82.0293

EPHEMERIS_TYPE = 0
CLASSIFICATION_TYPE = U
NORAD_CAT_ID   = 66916
ELEMENT_SET_NO = 999
REV_AT_EPOCH   = 93
BSTAR          = .17985608E-3
MEAN_MOTION_DOT = .142E-5
MEAN_MOTION_DDOT = 0

CCSDS_OMM_VERS = 2.0
CREATION_DATE  = 
ORIGINATOR     = 

OBJECT_NAME    = HULIANWANG DIGUI-107
OBJECT_ID      = 2025-285C
CENTER_NAME    = EARTH
REF_FRAME      = TEME
TIME_SYSTEM    = UTC
MEAN_ELEMENT_THEORY = SGP/SGP4

EPOCH          = 2025-12-12T23:39:22.477248
MEAN_MOTION    = 14.05580431
ECCENTRICITY   = .00075586
INCLINATION    = 50.0015
RA_OF_ASC_NODE = 116.2514
ARG_OF_PERICENTER = 285.9519
MEAN_ANOMALY   = 74.0553

EPHEMERIS_TYPE = 0
CLASSIFICATION_TYPE = U
NORAD_CAT_ID   = 66917
ELEMENT_SET_NO = 999
REV_AT_EPOCH   = 94
BSTAR          = .1167066E-4
MEAN_MOTION_DOT = -.133E-5
MEAN_MOTION_DDOT = 0

CCSDS_OMM_VERS = 2.0
CREATION_DATE  = 
ORIGINATOR     = 

OBJECT_NAME    = HULIANWANG DIGUI-108
OBJECT_ID      = 2025-285D
CENTER_NAME    = EARTH
REF_FRAME      = TEME
TIME_SYSTEM    = UTC
MEAN_ELEMENT_THEORY = SGP/SGP4

EPOCH          = 2025-12-12T23:38:32.682336
MEAN_MOTION    = 14.05705537
ECCENTRICITY   = .00064715
INCLINATION    = 50.0036
RA_OF_ASC_NODE = 116.2507
ARG_OF_PERICENTER = 281.0953
MEAN_ANOMALY   = 78.9225

EPHEMERIS_TYPE = 0
CLASSIFICATION_TYPE = U
NORAD_CAT_ID   = 66918
ELEMENT_SET_NO = 999
REV_AT_EPOCH   = 94
BSTAR          = .1916341E-3
MEAN_MOTION_DOT = .162E-5
MEAN_MOTION_DDOT = 0

CCSDS_OMM_VERS = 2.0
CREATION_DATE  = 
ORIGINATOR     = 

OBJECT_NAME    = HULIANWANG DIGUI-109
OBJECT_ID      = 2025-285E
CENTER_NAME    = EARTH
REF_FRAME      = TEME
TIME_SYSTEM    = UTC
MEAN_ELEMENT_THEORY = SGP/SGP4

EPOCH          = 2025-12-12T23:38:26.407104
MEAN_MOTION    = 14.05716691
ECCENTRICITY   = .00078658
INCLINATION    = 50.0064
RA_OF_ASC_NODE = 116.2539
ARG_OF_PERICENTER = 292.5469
MEAN_ANOMALY   = 67.4603

EPHEMERIS_TYPE = 0
CLASSIFICATION_TYPE = U
NORAD_CAT_ID   = 66919
ELEMENT_SET_NO = 999
REV_AT_EPOCH   = 94
BSTAR          = -.451821E-6
MEAN_MOTION_DOT = -.153E-5
MEAN_MOTION_DDOT = 0

CCSDS_OMM_VERS = 2.0
CREATION_DATE  = 
ORIGINATOR     = 

OBJECT_NAME    = HULIANWANG DIGUI-110
OBJECT_ID      = 2025-285F
CENTER_NAME    = EARTH
REF_FRAME      = TEME
TIME_SYSTEM    = UTC
MEAN_ELEMENT_THEORY = SGP/SGP4

EPOCH          = 2025-12-12T23:37:33.037824
MEAN_MOTION    = 14.05851365
ECCENTRICITY   = .00058308
INCLINATION    = 50.0094
RA_OF_ASC_NODE = 116.2544
ARG_OF_PERICENTER = 289.3694
MEAN_ANOMALY   = 70.6581

EPHEMERIS_TYPE = 0
CLASSIFICATION_TYPE = U
NORAD_CAT_ID   = 66920
ELEMENT_SET_NO = 999
REV_AT_EPOCH   = 94
BSTAR          = .18273329E-3
MEAN_MOTION_DOT = .148E-5
MEAN_MOTION_DDOT = 0

